OBJECT_NAME,OBJECT_ID,EPOCH,MEAN_MOTION,ECCENTRICITY,INCLINATION,RA_OF_ASC_NODE,ARG_OF_PERICENTER,MEAN_ANOMALY,EPHEMERIS_TYPE,CLASSIFICATION_TYPE,NORAD_CAT_ID,ELEMENT_SET_NO,REV_AT_EPOCH,BSTAR,MEAN_MOTION_DOT,MEAN_MOTION_DDOT
IONOSFERA-M 2,2024-199B,2026-07-23T14:04:27.139008,14.22763596,.00008461,98.7123,77.2764,131.3164,228.8087,0,U,61736,999,13600,.31379311E-4,.26E-6,0
PRSC-EO1,2025-012A,2026-07-23T15:39:32.906016,15.17702852,.00073049,97.4211,276.3957,122.8411,237.3527,0,U,62725,999,8372,.35837418E-3,.7165E-4,0
BIOMASS,2025-090A,2026-07-23T09:03:24.183072,14.67538192,.0001467,98.0751,31.1662,87.7384,272.3989,0,U,63772,999,6599,.11721262E-3,.617E-5,0
GOSAT-GW (IBUKI GW),2025-141A,2026-07-23T14:22:37.686720,14.67553695,.00014519,98.0564,141.3244,83.1036,277.0334,0,U,64694,999,5718,.1477083E-4,.36E-6,0
IONOSFERA-M 3,2025-155A,2026-07-23T13:35:31.585056,14.21491900,.00024659,98.6047,165.5600,99.6391,260.5066,0,U,64876,999,5157,.35991983E-4,.36E-6,0
IONOSFERA-M 4,2025-155B,2026-07-23T14:25:36.457824,14.21494363,.00019138,98.6045,165.5109,91.0620,269.0777,0,U,64877,999,5157,.37109868E-4,.38E-6,0
MICROCARB,2025-156A,2026-07-23T03:49:13.164096,14.72891772,.00182056,98.0068,280.7492,146.1783,214.0590,0,U,64899,999,5326,.81853984E-4,.475E-5,0
CO3D 3,2025-156B,2026-07-23T12:31:23.836224,15.20215830,.00017095,97.4335,282.6926,89.0549,271.0882,0,U,64900,999,5505,.18108445E-3,.3856E-4,0
CO3D 4,2025-156C,2026-07-23T12:31:37.316352,15.20216232,.00021649,97.4334,282.6927,137.7056,222.4347,0,U,64901,999,5505,.18755159E-3,.3996E-4,0
CO3D 2,2025-156D,2026-07-23T11:43:36.126048,15.20214875,.00011624,97.4335,282.5585,93.6361,266.5008,0,U,64902,999,5504,.20000198E-3,.4266E-4,0
CO3D 1,2025-156E,2026-07-23T13:18:36.938016,15.20202989,.00013243,97.4334,282.6236,99.3731,260.7654,0,U,64903,999,5505,.20956083E-3,.4472E-4,0
PRSC-S1,2025-164A,2026-07-23T15:47:39.130656,15.06692699,.00077735,41.1305,82.3669,248.1966,111.8021,0,U,65055,999,5393,.35945467E-3,.5261E-4,0
SENTINEL-6B,2025-264A,2026-07-23T07:30:48.649248,12.80930299,.00078205,66.0410,60.1450,268.3435,91.6684,0,U,66514,999,3179,.1306491E-4,-.58E-6,0
CAS500-3,2025-274F,2026-07-23T07:37:03.080064,14.88398081,.00056153,97.7433,131.5466,14.9664,345.1718,0,U,66655,999,3552,.11975826E-3,.1056E-4,0
CSG-3,2026-001A,2026-07-23T10:51:08.084160,14.82167871,.00014738,97.8898,27.5310,92.3348,267.8034,0,U,67304,999,2983,.46039136E-4,.314E-5,0
PRSC-E03,2026-092A,2026-07-23T10:31:41.837952,15.06834048,.00048632,37.9999,235.8850,302.2243,57.8047,0,U,68835,999,1342,.12770034E-3,.1831E-4,0
CAS500-2,2026-100AK,2026-07-23T05:07:53.298048,15.20183366,.00077169,97.3843,101.3699,230.3220,129.7336,0,U,69013,999,1228,.26601287E-3,.5697E-4,0
